EUTELSAT QUANTUM        
1 49056U 21069B   25345.14441554  .00000132  00000+0  00000+0 0  9993
2 49056   0.0182  27.6209 0003688 245.4753 266.7006  1.00271833 16041
EUTELSAT KONNECT VHTS   
1 53765U 22110A   25345.13548881  .00000023  00000+0  00000+0 0  9992
2 53765   0.0669 100.3786 0002463 140.7730 250.4291  1.00271355  4945
EUTELSAT HOTBIRD 13F    
1 54048U 22134A   25345.20889595  .00000093  00000+0  00000+0 0  9998
2 54048   0.0498 292.0840 0002178  64.4691 171.8346  1.00269110 11492
EUTELSAT HOTBIRD 13G    
1 54225U 22146A   25345.20889595  .00000093  00000+0  00000+0 0  9998
2 54225   0.0497 236.0046 0001879 307.1707 345.1918  1.00270683  5587
EUTELSAT 10B            
1 54259U 22157A   25344.99429124  .00000073  00000+0  00000+0 0  9998
2 54259   0.0623  98.8019 0000744  68.7015 280.3710  1.00269612 11140
EUTELSAT 36D            
1 59346U 24059A   25344.99940461  .00000000  00000+0  00000+0 0  9995
2 59346   0.0175 350.3136 0000652 350.9319 134.3543  1.00270665  6260
